AMC-15                  
1 28446U 04041A   24360.07948384 -.00000063  00000+0  00000+0 0  9999
2 28446   0.0227  33.8921 0002289 225.6180 118.1513  1.00272790 73949
NSS-10                  
1 28526U 05003A   24359.66408050 -.00000230  00000+0  00000+0 0  9997
2 28526   5.0967  76.9558 0002915 207.2439  11.0903  1.00271466 47749
XTAR-EUR                
1 28542U 05005A   24359.88932506  .00000174  00000+0  00000+0 0  9995
2 28542   2.9416  83.4465 0006484 202.6800 156.9053  1.00272801 72789
XM-3 (RHYTHM)           
1 28626U 05008A   24358.14146661 -.00000185  00000+0  00000+0 0  9991
2 28626   0.0100 349.3445 0004652 230.4559 198.1369  1.00267203 37192
INMARSAT 4-F1           
1 28628U 05009A   24359.53787118  .00000054  00000+0  00000+0 0  9990
2 28628   4.4861  41.7550 0002392 246.0281 177.4673  1.00272696 72267
DIRECTV 8               
1 28659U 05019A   24359.71939712  .00000026  00000+0  00000+0 0  9993
2 28659   0.0177  24.7550 0002940 256.7825 312.1315  1.00272692 71665
GALAXY 28 (G-28)        
1 28702U 05022A   24359.86823953 -.00000161  00000+0  00000+0 0  9992
2 28702   1.9054  85.6712 0006923 189.5659  42.1864  1.00271951 46575
THAICOM 4               
1 28786U 05028A   24360.10257834 -.00000336  00000+0  00000+0 0  9992
2 28786   0.0185   8.6509 0002228 260.9887 340.8754  1.00271487 70928
GALAXY 14 (G-14)        
1 28790U 05030A   24359.88900397 -.00000073  00000+0  00000+0 0  9990
2 28790   3.6296  81.4917 0001029 185.8320 162.2648  0.98945408 70882
ANIK F1R                
1 28868U 05036A   24359.86467743 -.00000051  00000+0  00000+0 0  9999
2 28868   2.9260  83.3086 0001198 194.8281  19.7346  1.00271859 41045
SYRACUSE 3A             
1 28885U 05041B   24359.89022031  .00000153  00000+0  00000+0 0  9996
2 28885   3.2639  82.5747 0002694 194.8258 158.7410  1.00271308 70338
INMARSAT 4-F2           
1 28899U 05044A   24359.91446000 -.00000239  00000+0  00000+0 0  9999
2 28899   4.4067  43.0774 0002967 237.9180 285.6202  1.00271370 70113
SPACEWAY 2              
1 28903U 05046B   24359.84815985  .00000028  00000+0  00000+0 0  9996
2 28903   4.0860  77.9474 0002114  77.3989 330.1107  0.99059942 45934
METEOSAT-9 (MSG-2)      
1 28912U 05049B   24331.84702219  .00000144  00000+0  00000+0 0  9993
2 28912   8.0635  59.4636 0001814 203.9464 153.5423  1.00276594  1313
EUTELSAT 174A           
1 28924U 05052A   24359.84903891  .00000033  00000+0  00000+0 0  9996
2 28924   2.8476  83.2160 0006165 192.7842 297.4762  1.00270621 46922
ECHOSTAR 10             
1 28935U 06003A   24359.62202236 -.00000030  00000+0  00000+0 0  9994
2 28935   0.0124  17.8959 0002375 215.1785 334.3049  1.00271688 69050
SPAINSAT                
1 28945U 06007A   24359.82249953 -.00000190  00000+0  00000+0 0  9995
2 28945   0.0375 246.3352 0005146  11.8327 101.7796  1.00272217 68803
EUTELSAT HOTBIRD 13E    
1 28946U 06007B   24359.88274858 -.00000101  00000+0  00000+0 0  9996
2 28946   0.7059  94.2706 0000809 136.1320 165.2866  1.00271527 68916
JCSAT-5A                
1 29045U 06010A   24360.09702118 -.00000301  00000+0  00000+0 0  9993
2 29045   0.0216 288.7548 0001434 355.3003 337.0332  1.00277411 68530
ASTRA 1KR               
1 29055U 06012A   24360.10415792  .00000146  00000+0  00000+0 0  9993
2 29055   0.0157 333.7260 0005244 293.3192 243.7547  1.00274140 68346
EWS-G1 (GOES 13)        
1 29155U 06018A   24359.89161038 -.00000018  00000+0  00000+0 0  9994
2 29155   3.1252  83.0065 0064758 257.7124 102.1971  0.98831671 37922
GALAXY 16 (G-16)        
1 29236U 06023A   24360.08070016 -.00000101  00000+0  00000+0 0  9991
2 29236   0.0116 313.0782 0002570 330.1156 100.9337  1.00271832 67863
EUTELSAT HOTBIRD 13B    
1 29270U 06032A   24359.89247920  .00000181  00000+0  00000+0 0  9993
2 29270   0.2654  86.1250 0003804 203.0308 159.1223  1.00269360 41906
JCSAT-3A                
1 29272U 06033A   24359.87757726 -.00000319  00000+0  00000+0 0  9998
2 29272   0.0145 355.6007 0001722 276.7535 265.4634  1.00271759 42331
SYRACUSE 3B             
1 29273U 06033B   24359.88657132  .00000047  00000+0  00000+0 0  9997
2 29273   1.5140  87.0163 0005444 193.6461 135.7325  1.00273623 67269
KOREASAT 5 (MUGUNGWHA 5)
1 29349U 06034A   24360.04840903 -.00000332  00000+0  00000+0 0  9990
2 29349   0.3855  91.6511 0001864 225.1233 267.7625  1.00270954 67220
DIRECTV 9S              
1 29494U 06043A   24359.62295034 -.00000089  00000+0  00000+0 0  9991
2 29494   1.0242  87.5077 0002990 191.5874 297.5935  1.00271760 45977
OPTUS D1                
1 29495U 06043B   24359.91611072 -.00000158  00000+0  00000+0 0  9995
2 29495   1.6395  86.4331 0003741 190.0927 299.1912  1.00273348 66736
BADR-4                  
1 29526U 06051A   24359.89117598  .00000170  00000+0  00000+0 0  9993
2 29526   0.6092  85.8603 0008283 211.7185 143.3631  1.00271341 45851
WILDBLUE-1              
1 29643U 06054A   24359.72096096 -.00000024  00000+0  00000+0 0  9996
2 29643   1.4064  87.5892 0001751 181.9312 332.5695  1.00272124 48384
SKYNET 5A               
1 30794U 07007B   24360.11918826 -.00000248  00000+0  00000+0 0  9991
2 30794   3.9229  80.2635 0004427 203.1385 308.8243  1.00271796 65241
ANIK F3                 
1 31102U 07009A   24360.07679054  .00000025  00000+0  00000+0 0  9991
2 31102   0.0241  15.5401 0001869 272.6875  74.7927  1.00270821 64932
ASTRA 1L                
1 31306U 07016A   24360.10415792  .00000146  00000+0  00000+0 0  9990
2 31306   0.0465 348.0187 0006541 300.3187 222.4725  1.00274899 64632
GALAXY 17 (G-17)        
1 31307U 07016B   24360.08348035 -.00000181  00000+0  00000+0 0  9993
2 31307   1.6020  86.8485 0007310 207.1545 105.1411  1.00272961 64673
ZHONGXING-6B            
1 31800U 07031A   24360.05168207 -.00000336  00000+0  00000+0 0  9998
2 31800   1.0047  88.4392 0004807 193.3293 306.1617  1.00268563 64060
DIRECTV 10              
1 31862U 07032A   24360.07991824 -.00000077  00000+0  00000+0 0  9990
2 31862   0.0079 122.3505 0000387 242.5665  15.1484  1.00273001 64001
BSAT-3A                 
1 32019U 07036B   24359.90777019 -.00000325  00000+0  00000+0 0  9993
2 32019   0.0487 220.4921 0003879  33.5032 276.5594  1.00270872 45126
OPTUS D2                
1 32252U 07044A   24359.77482692 -.00000084  00000+0  00000+0 0  9998
2 32252   0.6756  89.0464 0007013 187.5294 256.2736  1.00272062 63165
INTELSAT 11 (IS-11)     
1 32253U 07044B   24360.13867171 -.00000244  00000+0  00000+0 0  9998
2 32253   2.1595  85.3842 0004279 204.5377 171.1250  1.00270537 63123
WGS F1 (USA 195)        
1 32258U 07046A   24360.13874409 -.00000241  00000+0  00000+0 0  9994
2 32258   0.0922  89.2704 0000403 236.6525 135.6816  1.00271312 62916
SKYNET 5B               
1 32294U 07056B   24360.03383388  .00000164  00000+0  00000+0 0  9998
2 32294   3.8751  79.9270 0004178 195.6068 215.7474  1.00270020 62780
ASTRA 4A                
1 32299U 07057A   24360.11090953  .00000059  00000+0  00000+0 0  9999
2 32299   0.0189 326.9464 0002730 300.1819 231.7319  1.00270127 62557
HORIZONS-2              
1 32388U 07063B   24359.87128035 -.00000228  00000+0  00000+0 0  9998
2 32388   1.2066  87.3785 0001878 190.2397  56.1372  1.00271523 62401
THURAYA-3               
1 32404U 08001A   24359.79079721 -.00000281  00000+0  00000+0 0  9997
2 32404   5.1212  33.8398 0002483 249.3340 193.8086  1.00271191 62085
THOR 5                  
1 32487U 08006A   24360.11090953  .00000017  00000+0  00000+0 0  9997
2 32487   0.0400 259.5612 0002277  16.8482 216.8868  1.00270747 61775
AMC-14                  
1 32708U 08011A   24359.77965793  .00000078  00000+0  00000+0 0  9999
2 32708  23.3375  27.0108 0039850 350.5393  14.3861  1.00273577 62694
DIRECTV 11              
1 32729U 08013A   24360.08061330 -.00000099  00000+0  00000+0 0  9998
2 32729   0.0108 180.2418 0000157  90.9671 112.7145  1.00269475 61533
ICO G1                  
1 32763U 08016A   24359.65313355 -.00000151  00000+0  00000+0 0  9996
2 32763   5.1991  36.2122 0002294 243.0842 316.6364  1.00270636 61139
VINASAT-1               
1 32767U 08018A   24359.76926656 -.00000303  00000+0  00000+0 0  9997
2 32767   0.0261 305.7747 0001880 347.2198 209.6546  1.00271662 61183
STAR ONE C2             
1 32768U 08018B   24360.09355081 -.00000250  00000+0  00000+0 0  9995
2 32768   0.0273 343.8619 0002451 296.9427 141.9718  1.00269911 61147
AMOS-3                  
1 32794U 08022A   24359.88362997 -.00000009  00000+0  00000+0 0  9990
2 32794   0.0209  97.0078 0002708 169.1850 141.6870  1.00273299 61047
GALAXY 18 (G-18)        
1 32951U 08024A   24359.71861519  .00000050  00000+0  00000+0 0  9998
2 32951   0.0121 302.7624 0002915 331.5001 315.1624  1.00273417 40449
ZHONGXING-9             
1 33051U 08028A   24360.11858010 -.00000221  00000+0  00000+0 0  9993
2 33051   0.0178  33.0618 0004243 263.8881 292.0550  1.00270191 60606
SKYNET 5C               
1 33055U 08030A   24359.88240105 -.00000115  00000+0  00000+0 0  9994
2 33055   2.4007  83.3427 0004939 202.1167 108.2772  1.00271550 60545
TURKSAT 3A              
1 33056U 08030B   24359.19910560  .00000169  00000+0  00000+0 0  9996
2 33056   0.0373 104.6783 0002712 164.9316 297.2787  1.00273472 46944
INTELSAT 25 (IS-25)     
1 33153U 08034A   24359.73677323 -.00000199  00000+0  00000+0 0  9999
2 33153   1.3132  87.0536 0002978 194.4253  46.0026  1.00274254 60223
BADR-6                  
1 33154U 08034B   24359.84982084 -.00000160  00000+0  00000+0 0  9993
2 33154   1.4553  85.3751 0004736 302.3953 190.0969  0.98747878 60345
ECHOSTAR 11             
1 33207U 08035A   24359.62202236 -.00000032  00000+0  00000+0 0  9991
2 33207   0.0127  34.2608 0002307 240.6283 292.6700  1.00272161 45800
SUPERBIRD-C2            
1 33274U 08038A   24359.91446000 -.00000226  00000+0  00000+0 0  9994
2 33274   0.9661  88.2879 0001689 197.5408 281.2322  1.00271032100325
AMC-21                  
1 33275U 08038B   24359.73091529  .00000061  00000+0  00000+0 0  9993
2 33275   1.5525  87.2780 0002739 189.8731 314.8147  1.00270803 60083
